NUSAT-47                
1 66743U 25276CF  26195.73975528  .00003342  00000+0  15572-3 0  9991
2 66743  97.4184 268.9126 0000425 199.4178 160.7041 15.20581930 34612
NUSAT-53 (JANE GOODALL) 
1 68432U 26067S   26195.87229842  .00002916  00000+0  14325-3 0  9994
2 68432  97.4574 153.9962 0000675 347.4486  12.6731 15.18847523 16146
NUSAT-54 (BRANCA MARQU*)
1 68442U 26067AC  26195.86373497  .00002647  00000+0  13352-3 0  9990
2 68442  97.4557 153.8315 0003849   1.2535 358.8708 15.17994273 16137
