{"fetched_at":"2026-07-15T06:36:15.996Z","source":"https://celestrak.org/NORAD/elements/gp.php?NAME=NUSAT&FORMAT=JSON","constellation":"satellogic","records":[{"OBJECT_NAME":"NUSAT-47","OBJECT_ID":"2025-276CF","EPOCH":"2026-07-14T17:45:14.856192","CLASSIFICATION_TYPE":"U","MEAN_MOTION":15.2058193,"ECCENTRICITY":0.00004258,"INCLINATION":97.4184,"RA_OF_ASC_NODE":268.9126,"ARG_OF_PERICENTER":199.4178,"MEAN_ANOMALY":160.7041,"EPHEMERIS_TYPE":0,"NORAD_CAT_ID":66743,"ELEMENT_SET_NO":999,"REV_AT_EPOCH":3461,"BSTAR":0.00015572166,"MEAN_MOTION_DOT":0.00003342,"MEAN_MOTION_DDOT":0},{"OBJECT_NAME":"NUSAT-53 (JANE GOODALL)","OBJECT_ID":"2026-067S","EPOCH":"2026-07-14T20:56:06.583488","CLASSIFICATION_TYPE":"U","MEAN_MOTION":15.18847523,"ECCENTRICITY":0.00006753,"INCLINATION":97.4574,"RA_OF_ASC_NODE":153.9962,"ARG_OF_PERICENTER":347.4486,"MEAN_ANOMALY":12.6731,"EPHEMERIS_TYPE":0,"NORAD_CAT_ID":68432,"ELEMENT_SET_NO":999,"REV_AT_EPOCH":1614,"BSTAR":0.00014325099,"MEAN_MOTION_DOT":0.00002916,"MEAN_MOTION_DDOT":0},{"OBJECT_NAME":"NUSAT-54 (BRANCA MARQUES)","OBJECT_ID":"2026-067AC","EPOCH":"2026-07-14T20:43:46.701408","CLASSIFICATION_TYPE":"U","MEAN_MOTION":15.17994273,"ECCENTRICITY":0.00038499,"INCLINATION":97.4557,"RA_OF_ASC_NODE":153.8315,"ARG_OF_PERICENTER":1.2535,"MEAN_ANOMALY":358.8708,"EPHEMERIS_TYPE":0,"NORAD_CAT_ID":68442,"ELEMENT_SET_NO":999,"REV_AT_EPOCH":1613,"BSTAR":0.00013352448,"MEAN_MOTION_DOT":0.00002647,"MEAN_MOTION_DDOT":0}]}
